[
    {
        "ISO2": "AF",
        "ISO3": "AFG",
        "diallingCode": "+93",
        "isUEOrAELE": false
    },
    {
        "ISO2": "ZA",
        "ISO3": "ZAF",
        "diallingCode": "+27",
        "isUEOrAELE": false
    },
    {
        "ISO2": "AL",
        "ISO3": "ALB",
        "diallingCode": "+355",
        "isUEOrAELE": false
    },
    {
        "ISO2": "DZ",
        "ISO3": "DZA",
        "diallingCode": "+213",
        "isUEOrAELE": false
    },
    {
        "ISO2": "DE",
        "ISO3": "DEU",
        "diallingCode": "+49",
        "isUEOrAELE": true
    },
    {
        "ISO2": "AO",
        "ISO3": "AGO",
        "diallingCode": "+244",
        "isUEOrAELE": false
    },
    {
        "ISO2": "AI",
        "ISO3": "AIA",
        "diallingCode": "+1264",
        "isUEOrAELE": false
    },
    {
        "ISO2": "AG",
        "ISO3": "ATG",
        "diallingCode": "+1268",
        "isUEOrAELE": false
    },
    {
        "ISO2": "SA",
        "ISO3": "SAU",
        "diallingCode": "+966",
        "isUEOrAELE": false
    },
    {
        "ISO2": "AR",
        "ISO3": "ARG",
        "diallingCode": "+54",
        "isUEOrAELE": false
    },
    {
        "ISO2": "AW",
        "ISO3": "ABW",
        "diallingCode": "+297",
        "isUEOrAELE": false
    },
    {
        "ISO2": "AU",
        "ISO3": "AUS",
        "diallingCode": "+61",
        "isUEOrAELE": false
    },
    {
        "ISO2": "PS",
        "ISO3": "PSE",
        "diallingCode": "+970",
        "isUEOrAELE": false
    },
    {
        "ISO2": "AT",
        "ISO3": "AUT",
        "diallingCode": "+43",
        "isUEOrAELE": true
    },
    {
        "ISO2": "AZ",
        "ISO3": "AZE",
        "diallingCode": "+994",
        "isUEOrAELE": false
    },
    {
        "ISO2": "AX",
        "ISO3": "ALA",
        "isUEOrAELE": true
    },
    {
        "ISO2": "AD",
        "ISO3": "AND",
        "diallingCode": "+376",
        "isUEOrAELE": false
    },
    {
        "ISO2": "AQ",
        "ISO3": "ATA",
        "isUEOrAELE": false
    },
    {
        "ISO2": "AM",
        "ISO3": "ARM",
        "diallingCode": "+374",
        "isUEOrAELE": false
    },
    {
        "ISO2": "BS",
        "ISO3": "BHS",
        "diallingCode": "+1242",
        "isUEOrAELE": false
    },
    {
        "ISO2": "BH",
        "ISO3": "BHR",
        "diallingCode": "+973",
        "isUEOrAELE": false
    },
    {
        "ISO2": "BD",
        "ISO3": "BGD",
        "diallingCode": "+880",
        "isUEOrAELE": false
    },
    {
        "ISO2": "BB",
        "ISO3": "BRB",
        "diallingCode": "+1246",
        "isUEOrAELE": false
    },
    {
        "ISO2": "BE",
        "ISO3": "BEL",
        "diallingCode": "+32",
        "isUEOrAELE": true
    },
    {
        "ISO2": "BZ",
        "ISO3": "BLZ",
        "diallingCode": "+501",
        "isUEOrAELE": false
    },
    {
        "ISO2": "BJ",
        "ISO3": "BEN",
        "diallingCode": "+229",
        "isUEOrAELE": false
    },
    {
        "ISO2": "BM",
        "ISO3": "BMU",
        "diallingCode": "+1441",
        "isUEOrAELE": false
    },
    {
        "ISO2": "BT",
        "ISO3": "BTN",
        "diallingCode": "+975",
        "isUEOrAELE": false
    },
    {
        "ISO2": "BY",
        "ISO3": "BLR",
        "diallingCode": "+375",
        "isUEOrAELE": false
    },
    {
        "ISO2": "BO",
        "ISO3": "BOL",
        "diallingCode": "+591",
        "isUEOrAELE": false
    },
    {
        "ISO2": "B1",
        "ISO3": "   ",
        "isUEOrAELE": false
    },
    {
        "ISO2": "BA",
        "ISO3": "BIH",
        "diallingCode": "+387",
        "isUEOrAELE": false
    },
    {
        "ISO2": "BW",
        "ISO3": "BWA",
        "diallingCode": "+267",
        "isUEOrAELE": false
    },
    {
        "ISO2": "BR",
        "ISO3": "BRA",
        "diallingCode": "+55",
        "isUEOrAELE": false
    },
    {
        "ISO2": "BN",
        "ISO3": "BRN",
        "diallingCode": "+673",
        "isUEOrAELE": false
    },
    {
        "ISO2": "BG",
        "ISO3": "BGR",
        "diallingCode": "+359",
        "isUEOrAELE": true
    },
    {
        "ISO2": "BF",
        "ISO3": "BFA",
        "diallingCode": "+226",
        "isUEOrAELE": false
    },
    {
        "ISO2": "BI",
        "ISO3": "BDI",
        "diallingCode": "+257",
        "isUEOrAELE": false
    },
    {
        "ISO2": "BQ",
        "ISO3": "BES",
        "diallingCode": "+599",
        "isUEOrAELE": false
    },
    {
        "ISO2": "BV",
        "ISO3": "BVT",
        "isUEOrAELE": false
    },
    {
        "ISO2": "KH",
        "ISO3": "KHM",
        "diallingCode": "+855",
        "isUEOrAELE": false
    },
    {
        "ISO2": "CM",
        "ISO3": "CMR",
        "diallingCode": "+237",
        "isUEOrAELE": false
    },
    {
        "ISO2": "CA",
        "ISO3": "CAN",
        "diallingCode": "+1",
        "isUEOrAELE": false
    },
    {
        "ISO2": "CV",
        "ISO3": "CPV",
        "diallingCode": "+238",
        "isUEOrAELE": false
    },
    {
        "ISO2": "CL",
        "ISO3": "CHL",
        "diallingCode": "+56",
        "isUEOrAELE": false
    },
    {
        "ISO2": "CN",
        "ISO3": "CHN",
        "diallingCode": "+86",
        "isUEOrAELE": false
    },
    {
        "ISO2": "CY",
        "ISO3": "CYP",
        "diallingCode": "+357",
        "isUEOrAELE": true
    },
    {
        "ISO2": "C2",
        "ISO3": "   ",
        "isUEOrAELE": false
    },
    {
        "ISO2": "CO",
        "ISO3": "COL",
        "diallingCode": "+57",
        "isUEOrAELE": false
    },
    {
        "ISO2": "KM",
        "ISO3": "COM",
        "diallingCode": "+269",
        "isUEOrAELE": false
    },
    {
        "ISO2": "CG",
        "ISO3": "COG",
        "diallingCode": "+242",
        "isUEOrAELE": false
    },
    {
        "ISO2": "CD",
        "ISO3": "COD",
        "diallingCode": "+243",
        "isUEOrAELE": false
    },
    {
        "ISO2": "KR",
        "ISO3": "KOR",
        "diallingCode": "+82",
        "isUEOrAELE": false
    },
    {
        "ISO2": "CR",
        "ISO3": "CRI",
        "diallingCode": "+506",
        "isUEOrAELE": false
    },
    {
        "ISO2": "CI",
        "ISO3": "CIV",
        "diallingCode": "+225",
        "isUEOrAELE": false
    },
    {
        "ISO2": "HR",
        "ISO3": "HRV",
        "diallingCode": "+385",
        "isUEOrAELE": true
    },
    {
        "ISO2": "CW",
        "ISO3": "CUW",
        "diallingCode": "+599",
        "isUEOrAELE": false
    },
    {
        "ISO2": "CX",
        "ISO3": "CXR",
        "isUEOrAELE": false
    },
    {
        "ISO2": "CC",
        "ISO3": "CCK",
        "isUEOrAELE": false
    },
    {
        "ISO2": "KP",
        "ISO3": "PRK",
        "diallingCode": "+850",
        "isUEOrAELE": false
    },
    {
        "ISO2": "CU",
        "ISO3": "CUB",
        "diallingCode": "+53",
        "isUEOrAELE": false
    },
    {
        "ISO2": "DK",
        "ISO3": "DNK",
        "diallingCode": "+45",
        "isUEOrAELE": true
    },
    {
        "ISO2": "DJ",
        "ISO3": "DJI",
        "diallingCode": "+253",
        "isUEOrAELE": false
    },
    {
        "ISO2": "DM",
        "ISO3": "DMA",
        "diallingCode": "+1767",
        "isUEOrAELE": false
    },
    {
        "ISO2": "EG",
        "ISO3": "EGY",
        "diallingCode": "+20",
        "isUEOrAELE": false
    },
    {
        "ISO2": "SV",
        "ISO3": "SLV",
        "diallingCode": "+503",
        "isUEOrAELE": false
    },
    {
        "ISO2": "AE",
        "ISO3": "ARE",
        "diallingCode": "+971",
        "isUEOrAELE": false
    },
    {
        "ISO2": "EC",
        "ISO3": "ECU",
        "diallingCode": "+593",
        "isUEOrAELE": false
    },
    {
        "ISO2": "ER",
        "ISO3": "ERI",
        "diallingCode": "+291",
        "isUEOrAELE": false
    },
    {
        "ISO2": "ES",
        "ISO3": "ESP",
        "diallingCode": "+34",
        "isUEOrAELE": true
    },
    {
        "ISO2": "EE",
        "ISO3": "EST",
        "diallingCode": "+372",
        "isUEOrAELE": true
    },
    {
        "ISO2": "US",
        "ISO3": "USA",
        "diallingCode": "+1",
        "isUEOrAELE": false
    },
    {
        "ISO2": "ET",
        "ISO3": "ETH",
        "diallingCode": "+251",
        "isUEOrAELE": false
    },
    {
        "ISO2": "VA",
        "ISO3": "VAT",
        "diallingCode": "+418",
        "isUEOrAELE": false
    },
    {
        "ISO2": "FK",
        "ISO3": "FLK",
        "diallingCode": "+500",
        "isUEOrAELE": false
    },
    {
        "ISO2": "FJ",
        "ISO3": "FJI",
        "diallingCode": "+679",
        "isUEOrAELE": false
    },
    {
        "ISO2": "FI",
        "ISO3": "FIN",
        "diallingCode": "+358",
        "isUEOrAELE": true
    },
    {
        "ISO2": "FR",
        "ISO3": "FRA",
        "diallingCode": "+33",
        "isUEOrAELE": true
    },
    {
        "ISO2": "FO",
        "ISO3": "FRO",
        "diallingCode": "+298",
        "isUEOrAELE": false
    },
    {
        "ISO2": "GA",
        "ISO3": "GAB",
        "diallingCode": "+241",
        "isUEOrAELE": false
    },
    {
        "ISO2": "GM",
        "ISO3": "GMB",
        "diallingCode": "+220",
        "isUEOrAELE": false
    },
    {
        "ISO2": "GE",
        "ISO3": "GEO",
        "diallingCode": "+995",
        "isUEOrAELE": false
    },
    {
        "ISO2": "GH",
        "ISO3": "GHA",
        "diallingCode": "+233",
        "isUEOrAELE": false
    },
    {
        "ISO2": "GI",
        "ISO3": "GIB",
        "diallingCode": "+350",
        "isUEOrAELE": true
    },
    {
        "ISO2": "GR",
        "ISO3": "GRC",
        "diallingCode": "+30",
        "isUEOrAELE": true
    },
    {
        "ISO2": "GD",
        "ISO3": "GRD",
        "diallingCode": "+1473",
        "isUEOrAELE": false
    },
    {
        "ISO2": "GP",
        "ISO3": "GLP",
        "diallingCode": "+590",
        "isUEOrAELE": true,
        "zipCode": 971
    },
    {
        "ISO2": "GU",
        "ISO3": "GUM",
        "diallingCode": "+1671",
        "isUEOrAELE": false
    },
    {
        "ISO2": "GT",
        "ISO3": "GTM",
        "diallingCode": "+502",
        "isUEOrAELE": false
    },
    {
        "ISO2": "GN",
        "ISO3": "GIN",
        "diallingCode": "+224",
        "isUEOrAELE": false
    },
    {
        "ISO2": "GW",
        "ISO3": "GNB",
        "diallingCode": "+245",
        "isUEOrAELE": false
    },
    {
        "ISO2": "GQ",
        "ISO3": "GNQ",
        "diallingCode": "+240",
        "isUEOrAELE": false
    },
    {
        "ISO2": "GY",
        "ISO3": "GUY",
        "diallingCode": "+592",
        "isUEOrAELE": false
    },
    {
        "ISO2": "GF",
        "ISO3": "GUF",
        "diallingCode": "+594",
        "isUEOrAELE": true,
        "zipCode": 973
    },
    {
        "ISO2": "GS",
        "ISO3": "SGS",
        "isUEOrAELE": false
    },
    {
        "ISO2": "GL",
        "ISO3": "GRL",
        "diallingCode": "+299",
        "isUEOrAELE": false
    },
    {
        "ISO2": "GG",
        "ISO3": "GGY",
        "isUEOrAELE": false
    },
    {
        "ISO2": "HT",
        "ISO3": "HTI",
        "diallingCode": "+509",
        "isUEOrAELE": false
    },
    {
        "ISO2": "NL",
        "ISO3": "NLD",
        "diallingCode": "+31",
        "isUEOrAELE": true
    },
    {
        "ISO2": "QT",
        "ISO3": "   ",
        "isUEOrAELE": false
    },
    {
        "ISO2": "HN",
        "ISO3": "HND",
        "diallingCode": "+504",
        "isUEOrAELE": false
    },
    {
        "ISO2": "HK",
        "ISO3": "HKG",
        "diallingCode": "+852",
        "isUEOrAELE": false
    },
    {
        "ISO2": "HU",
        "ISO3": "HUN",
        "diallingCode": "+36",
        "isUEOrAELE": true
    },
    {
        "ISO2": "HM",
        "ISO3": "HMD",
        "diallingCode": "+672",
        "isUEOrAELE": false
    },
    {
        "ISO2": "KY",
        "ISO3": "CYM",
        "diallingCode": "+1345",
        "isUEOrAELE": false
    },
    {
        "ISO2": "CK",
        "ISO3": "COK",
        "diallingCode": "+682",
        "isUEOrAELE": false
    },
    {
        "ISO2": "MP",
        "ISO3": "MNP",
        "diallingCode": "+1670",
        "isUEOrAELE": false
    },
    {
        "ISO2": "MH",
        "ISO3": "MHL",
        "diallingCode": "+692",
        "isUEOrAELE": false
    },
    {
        "ISO2": "SB",
        "ISO3": "SLB",
        "diallingCode": "+677",
        "isUEOrAELE": false
    },
    {
        "ISO2": "VI",
        "ISO3": "VIR",
        "isUEOrAELE": false
    },
    {
        "ISO2": "VG",
        "ISO3": "VGB",
        "diallingCode": "+1284",
        "isUEOrAELE": false
    },
    {
        "ISO2": "IN",
        "ISO3": "IND",
        "diallingCode": "+91",
        "isUEOrAELE": false
    },
    {
        "ISO2": "ID",
        "ISO3": "IDN",
        "diallingCode": "+62",
        "isUEOrAELE": false
    },
    {
        "ISO2": "IQ",
        "ISO3": "IRQ",
        "diallingCode": "+964",
        "isUEOrAELE": false
    },
    {
        "ISO2": "IE",
        "ISO3": "IRL",
        "diallingCode": "+353",
        "isUEOrAELE": true
    },
    {
        "ISO2": "IS",
        "ISO3": "ISL",
        "diallingCode": "+354",
        "isUEOrAELE": true
    },
    {
        "ISO2": "IL",
        "ISO3": "ISR",
        "diallingCode": "+972",
        "isUEOrAELE": false
    },
    {
        "ISO2": "IT",
        "ISO3": "ITA",
        "diallingCode": "+39",
        "isUEOrAELE": true
    },
    {
        "ISO2": "UM",
        "ISO3": "UMI",
        "isUEOrAELE": false
    },
    {
        "ISO2": "IR",
        "ISO3": "IRN",
        "diallingCode": "+98",
        "isUEOrAELE": false
    },
    {
        "ISO2": "JM",
        "ISO3": "JAM",
        "diallingCode": "+1876",
        "isUEOrAELE": false
    },
    {
        "ISO2": "JO",
        "ISO3": "JOR",
        "diallingCode": "+962",
        "isUEOrAELE": false
    },
    {
        "ISO2": "JP",
        "ISO3": "JPN",
        "diallingCode": "+81",
        "isUEOrAELE": false
    },
    {
        "ISO2": "JE",
        "ISO3": "JEY",
        "isUEOrAELE": false
    },
    {
        "ISO2": "KZ",
        "ISO3": "KAZ",
        "diallingCode": "+7",
        "isUEOrAELE": false
    },
    {
        "ISO2": "KE",
        "ISO3": "KEN",
        "diallingCode": "+254",
        "isUEOrAELE": false
    },
    {
        "ISO2": "KI",
        "ISO3": "KIR",
        "diallingCode": "+686",
        "isUEOrAELE": false
    },
    {
        "ISO2": "XR",
        "ISO3": "XRK",
        "isUEOrAELE": false
    },
    {
        "ISO2": "XF",
        "ISO3": "   ",
        "isUEOrAELE": false
    },
    {
        "ISO2": "KW",
        "ISO3": "KWT",
        "diallingCode": "+965",
        "isUEOrAELE": false
    },
    {
        "ISO2": "KG",
        "ISO3": "KGZ",
        "diallingCode": "+996",
        "isUEOrAELE": false
    },
    {
        "ISO2": "LA",
        "ISO3": "LAO",
        "diallingCode": "+856",
        "isUEOrAELE": false
    },
    {
        "ISO2": "LV",
        "ISO3": "LVA",
        "diallingCode": "+371",
        "isUEOrAELE": true
    },
    {
        "ISO2": "LB",
        "ISO3": "LBN",
        "diallingCode": "+961",
        "isUEOrAELE": false
    },
    {
        "ISO2": "LR",
        "ISO3": "LBR",
        "diallingCode": "+231",
        "isUEOrAELE": false
    },
    {
        "ISO2": "LI",
        "ISO3": "LIE",
        "diallingCode": "+423",
        "isUEOrAELE": true
    },
    {
        "ISO2": "LT",
        "ISO3": "LTU",
        "diallingCode": "+370",
        "isUEOrAELE": true
    },
    {
        "ISO2": "LU",
        "ISO3": "LUX",
        "diallingCode": "+352",
        "isUEOrAELE": true
    },
    {
        "ISO2": "LS",
        "ISO3": "LSO",
        "diallingCode": "+266",
        "isUEOrAELE": false
    },
    {
        "ISO2": "LY",
        "ISO3": "LBY",
        "diallingCode": "+218",
        "isUEOrAELE": false
    },
    {
        "ISO2": "MO",
        "ISO3": "MAC",
        "diallingCode": "+853",
        "isUEOrAELE": false
    },
    {
        "ISO2": "MK",
        "ISO3": "MKD",
        "diallingCode": "+389",
        "isUEOrAELE": false
    },
    {
        "ISO2": "MG",
        "ISO3": "MDG",
        "diallingCode": "+261",
        "isUEOrAELE": false
    },
    {
        "ISO2": "MY",
        "ISO3": "MYS",
        "diallingCode": "+60",
        "isUEOrAELE": false
    },
    {
        "ISO2": "MW",
        "ISO3": "MWI",
        "diallingCode": "+265",
        "isUEOrAELE": false
    },
    {
        "ISO2": "MV",
        "ISO3": "MDV",
        "diallingCode": "+960",
        "isUEOrAELE": false
    },
    {
        "ISO2": "ML",
        "ISO3": "MLI",
        "diallingCode": "+223",
        "isUEOrAELE": false
    },
    {
        "ISO2": "MT",
        "ISO3": "MLT",
        "diallingCode": "+356",
        "isUEOrAELE": true
    },
    {
        "ISO2": "MA",
        "ISO3": "MAR",
        "diallingCode": "+212",
        "isUEOrAELE": false
    },
    {
        "ISO2": "MQ",
        "ISO3": "MTQ",
        "diallingCode": "+596",
        "isUEOrAELE": true,
        "zipCode": 972
    },
    {
        "ISO2": "MU",
        "ISO3": "MUS",
        "diallingCode": "+230",
        "isUEOrAELE": false
    },
    {
        "ISO2": "MR",
        "ISO3": "MRT",
        "diallingCode": "+222",
        "isUEOrAELE": false
    },
    {
        "ISO2": "YT",
        "ISO3": "MYT",
        "diallingCode": "+262",
        "isUEOrAELE": true,
        "zipCode": 976
    },
    {
        "ISO2": "MX",
        "ISO3": "MEX",
        "diallingCode": "+52",
        "isUEOrAELE": false
    },
    {
        "ISO2": "FM",
        "ISO3": "FSM",
        "diallingCode": "+691",
        "isUEOrAELE": false
    },
    {
        "ISO2": "MD",
        "ISO3": "MDA",
        "diallingCode": "+373",
        "isUEOrAELE": false
    },
    {
        "ISO2": "MC",
        "ISO3": "MCO",
        "diallingCode": "+377",
        "isUEOrAELE": true
    },
    {
        "ISO2": "MN",
        "ISO3": "MNG",
        "diallingCode": "+976",
        "isUEOrAELE": false
    },
    {
        "ISO2": "ME",
        "ISO3": "MNE",
        "diallingCode": "+382",
        "isUEOrAELE": false
    },
    {
        "ISO2": "MS",
        "ISO3": "MSR",
        "diallingCode": "+1664",
        "isUEOrAELE": false
    },
    {
        "ISO2": "MZ",
        "ISO3": "MOZ",
        "diallingCode": "+258",
        "isUEOrAELE": false
    },
    {
        "ISO2": "MM",
        "ISO3": "MMR",
        "diallingCode": "+95",
        "isUEOrAELE": false
    },
    {
        "ISO2": "NP",
        "ISO3": "NPL",
        "diallingCode": "+977",
        "isUEOrAELE": false
    },
    {
        "ISO2": "NI",
        "ISO3": "NIC",
        "diallingCode": "+505",
        "isUEOrAELE": false
    },
    {
        "ISO2": "NE",
        "ISO3": "NER",
        "diallingCode": "+227",
        "isUEOrAELE": false
    },
    {
        "ISO2": "NG",
        "ISO3": "NGA",
        "diallingCode": "+234",
        "isUEOrAELE": false
    },
    {
        "ISO2": "NO",
        "ISO3": "NOR",
        "diallingCode": "+47",
        "isUEOrAELE": true
    },
    {
        "ISO2": "NC",
        "ISO3": "NCL",
        "diallingCode": "+687",
        "isUEOrAELE": false,
        "zipCode": 988
    },
    {
        "ISO2": "NZ",
        "ISO3": "NZL",
        "diallingCode": "+64",
        "isUEOrAELE": false
    },
    {
        "ISO2": "NA",
        "ISO3": "NAM",
        "diallingCode": "+264",
        "isUEOrAELE": false
    },
    {
        "ISO2": "NR",
        "ISO3": "NRU",
        "diallingCode": "+674",
        "isUEOrAELE": false
    },
    {
        "ISO2": "NU",
        "ISO3": "NIU",
        "diallingCode": "+683",
        "isUEOrAELE": false
    },
    {
        "ISO2": "NF",
        "ISO3": "NFK",
        "isUEOrAELE": false
    },
    {
        "ISO2": "OM",
        "ISO3": "OMN",
        "diallingCode": "+968",
        "isUEOrAELE": false
    },
    {
        "ISO2": "UG",
        "ISO3": "UGA",
        "diallingCode": "+256",
        "isUEOrAELE": false
    },
    {
        "ISO2": "UZ",
        "ISO3": "UZB",
        "diallingCode": "+998",
        "isUEOrAELE": false
    },
    {
        "ISO2": "IO",
        "ISO3": "IOT",
        "isUEOrAELE": false
    },
    {
        "ISO2": "PK",
        "ISO3": "PAK",
        "diallingCode": "+92",
        "isUEOrAELE": false
    },
    {
        "ISO2": "PW",
        "ISO3": "PLW",
        "diallingCode": "+680",
        "isUEOrAELE": false
    },
    {
        "ISO2": "PA",
        "ISO3": "PAN",
        "diallingCode": "+507",
        "isUEOrAELE": false
    },
    {
        "ISO2": "PG",
        "ISO3": "PNG",
        "diallingCode": "+675",
        "isUEOrAELE": false
    },
    {
        "ISO2": "PY",
        "ISO3": "PRY",
        "diallingCode": "+595",
        "isUEOrAELE": false
    },
    {
        "ISO2": "PE",
        "ISO3": "PER",
        "diallingCode": "+51",
        "isUEOrAELE": false
    },
    {
        "ISO2": "PH",
        "ISO3": "PHL",
        "diallingCode": "+63",
        "isUEOrAELE": false
    },
    {
        "ISO2": "PL",
        "ISO3": "POL",
        "diallingCode": "+48",
        "isUEOrAELE": true
    },
    {
        "ISO2": "PF",
        "ISO3": "PYF",
        "diallingCode": "+689",
        "isUEOrAELE": false,
        "zipCode": 987
    },
    {
        "ISO2": "PR",
        "ISO3": "PRI",
        "diallingCode": "+1787",
        "isUEOrAELE": false
    },
    {
        "ISO2": "PT",
        "ISO3": "PRT",
        "diallingCode": "+351",
        "isUEOrAELE": true
    },
    {
        "ISO2": "PN",
        "ISO3": "PCN",
        "isUEOrAELE": false
    },
    {
        "ISO2": "QA",
        "ISO3": "QAT",
        "diallingCode": "+974",
        "isUEOrAELE": false
    },
    {
        "ISO2": "CF",
        "ISO3": "CAF",
        "diallingCode": "+236",
        "isUEOrAELE": false
    },
    {
        "ISO2": "DO",
        "ISO3": "DOM",
        "diallingCode": "+1809",
        "isUEOrAELE": false
    },
    {
        "ISO2": "CZ",
        "ISO3": "CZE",
        "diallingCode": "+420",
        "isUEOrAELE": true
    },
    {
        "ISO2": "RE",
        "ISO3": "REU",
        "diallingCode": "+262",
        "isUEOrAELE": true,
        "zipCode": 974
    },
    {
        "ISO2": "RO",
        "ISO3": "ROU",
        "diallingCode": "+40",
        "isUEOrAELE": true
    },
    {
        "ISO2": "GB",
        "ISO3": "GBR",
        "diallingCode": "+44",
        "isUEOrAELE": true
    },
    {
        "ISO2": "RU",
        "ISO3": "RUS",
        "diallingCode": "+7",
        "isUEOrAELE": false
    },
    {
        "ISO2": "RW",
        "ISO3": "RWA",
        "diallingCode": "+250",
        "isUEOrAELE": false
    },
    {
        "ISO2": "MF",
        "ISO3": "MAF",
        "diallingCode": "+590",
        "isUEOrAELE": true,
        "zipCode": 978
    },
    {
        "ISO2": "SX",
        "ISO3": "SXM",
        "diallingCode": "+599",
        "isUEOrAELE": false
    },
    {
        "ISO2": "AS",
        "ISO3": "ASM",
        "diallingCode": "+1684",
        "isUEOrAELE": false
    },
    {
        "ISO2": "WS",
        "ISO3": "WSM",
        "diallingCode": "+685",
        "isUEOrAELE": false
    },
    {
        "ISO2": "ST",
        "ISO3": "STP",
        "diallingCode": "+239",
        "isUEOrAELE": false
    },
    {
        "ISO2": "SN",
        "ISO3": "SEN",
        "diallingCode": "+221",
        "isUEOrAELE": false
    },
    {
        "ISO2": "YU",
        "ISO3": "SRB",
        "diallingCode": "+381",
        "isUEOrAELE": false
    },
    {
        "ISO2": "SL",
        "ISO3": "SLE",
        "diallingCode": "+232",
        "isUEOrAELE": false
    },
    {
        "ISO2": "SG",
        "ISO3": "SGP",
        "diallingCode": "+65",
        "isUEOrAELE": false
    },
    {
        "ISO2": "SK",
        "ISO3": "SVK",
        "diallingCode": "+421",
        "isUEOrAELE": true
    },
    {
        "ISO2": "SI",
        "ISO3": "SVN",
        "diallingCode": "+386",
        "isUEOrAELE": true
    },
    {
        "ISO2": "SD",
        "ISO3": "SDN",
        "diallingCode": "+249",
        "isUEOrAELE": false
    },
    {
        "ISO2": "LK",
        "ISO3": "LKA",
        "diallingCode": "+94",
        "isUEOrAELE": false
    },
    {
        "ISO2": "KN",
        "ISO3": "KNA",
        "diallingCode": "+1869",
        "isUEOrAELE": false
    },
    {
        "ISO2": "LC",
        "ISO3": "LCA",
        "diallingCode": "+1758",
        "isUEOrAELE": false
    },
    {
        "ISO2": "VC",
        "ISO3": "VCT",
        "diallingCode": "+1784",
        "isUEOrAELE": false
    },
    {
        "ISO2": "SU",
        "ISO3": "SSD",
        "diallingCode": "+249",
        "isUEOrAELE": false
    },
    {
        "ISO2": "SE",
        "ISO3": "SWE",
        "diallingCode": "+46",
        "isUEOrAELE": true
    },
    {
        "ISO2": "CH",
        "ISO3": "CHE",
        "diallingCode": "+41",
        "isUEOrAELE": true
    },
    {
        "ISO2": "SR",
        "ISO3": "SUR",
        "diallingCode": "+597",
        "isUEOrAELE": false
    },
    {
        "ISO2": "SY",
        "ISO3": "SYR",
        "diallingCode": "+963",
        "isUEOrAELE": false
    },
    {
        "ISO2": "EH",
        "ISO3": "ESH",
        "isUEOrAELE": false
    },
    {
        "ISO2": "BL",
        "ISO3": "BLM",
        "diallingCode": "+590",
        "isUEOrAELE": true,
        "zipCode": 977
    },
    {
        "ISO2": "SM",
        "ISO3": "SMR",
        "diallingCode": "+378",
        "isUEOrAELE": true
    },
    {
        "ISO2": "PM",
        "ISO3": "SPM",
        "diallingCode": "+508",
        "isUEOrAELE": true,
        "zipCode": 975
    },
    {
        "ISO2": "SH",
        "ISO3": "SHN",
        "diallingCode": "+290",
        "isUEOrAELE": false
    },
    {
        "ISO2": "CS",
        "ISO3": "SCG",
        "diallingCode": "+38",
        "isUEOrAELE": false
    },
    {
        "ISO2": "SC",
        "ISO3": "SYC",
        "diallingCode": "+248",
        "isUEOrAELE": false
    },
    {
        "ISO2": "SO",
        "ISO3": "SOM",
        "diallingCode": "+252",
        "isUEOrAELE": false
    },
    {
        "ISO2": "SJ",
        "ISO3": "SJM",
        "isUEOrAELE": false
    },
    {
        "ISO2": "SZ",
        "ISO3": "SWZ",
        "diallingCode": "+268",
        "isUEOrAELE": false
    },
    {
        "ISO2": "TJ",
        "ISO3": "TJK",
        "diallingCode": "+992",
        "isUEOrAELE": false
    },
    {
        "ISO2": "TW",
        "ISO3": "TWN",
        "diallingCode": "+886",
        "isUEOrAELE": false
    },
    {
        "ISO2": "TZ",
        "ISO3": "TZA",
        "diallingCode": "+255",
        "isUEOrAELE": false
    },
    {
        "ISO2": "TD",
        "ISO3": "TCD",
        "diallingCode": "+235",
        "isUEOrAELE": false
    },
    {
        "ISO2": "TH",
        "ISO3": "THA",
        "diallingCode": "+66",
        "isUEOrAELE": false
    },
    {
        "ISO2": "TP",
        "ISO3": "TLS",
        "diallingCode": "+670",
        "isUEOrAELE": false
    },
    {
        "ISO2": "TG",
        "ISO3": "TGO",
        "diallingCode": "+228",
        "isUEOrAELE": false
    },
    {
        "ISO2": "TO",
        "ISO3": "TON",
        "diallingCode": "+676",
        "isUEOrAELE": false
    },
    {
        "ISO2": "TT",
        "ISO3": "TTO",
        "diallingCode": "+1868",
        "isUEOrAELE": false
    },
    {
        "ISO2": "TN",
        "ISO3": "TUN",
        "diallingCode": "+216",
        "isUEOrAELE": false
    },
    {
        "ISO2": "TM",
        "ISO3": "TKM",
        "diallingCode": "+993",
        "isUEOrAELE": false
    },
    {
        "ISO2": "TC",
        "ISO3": "TCA",
        "diallingCode": "+1649",
        "isUEOrAELE": false
    },
    {
        "ISO2": "TR",
        "ISO3": "TUR",
        "diallingCode": "+90",
        "isUEOrAELE": false
    },
    {
        "ISO2": "TV",
        "ISO3": "TUV",
        "diallingCode": "+688",
        "isUEOrAELE": false
    },
    {
        "ISO2": "TF",
        "ISO3": "ATF",
        "diallingCode": "+262",
        "isUEOrAELE": false,
        "zipCode": 984
    },
    {
        "ISO2": "TL",
        "ISO3": "TLS",
        "isUEOrAELE": false
    },
    {
        "ISO2": "TK",
        "ISO3": "TKL",
        "diallingCode": "+690",
        "isUEOrAELE": false
    },
    {
        "ISO2": "UA",
        "ISO3": "UKR",
        "diallingCode": "+380",
        "isUEOrAELE": false
    },
    {
        "ISO2": "UY",
        "ISO3": "URY",
        "diallingCode": "+598",
        "isUEOrAELE": false
    },
    {
        "ISO2": "VU",
        "ISO3": "VUT",
        "diallingCode": "+678",
        "isUEOrAELE": false
    },
    {
        "ISO2": "VE",
        "ISO3": "VEN",
        "diallingCode": "+58",
        "isUEOrAELE": false
    },
    {
        "ISO2": "VN",
        "ISO3": "VNM",
        "diallingCode": "+84",
        "isUEOrAELE": false
    },
    {
        "ISO2": "WF",
        "ISO3": "WLF",
        "diallingCode": "+681",
        "isUEOrAELE": false,
        "zipCode": 986
    },
    {
        "ISO2": "YE",
        "ISO3": "YEM",
        "diallingCode": "+967",
        "isUEOrAELE": false
    },
    {
        "ISO2": "ZM",
        "ISO3": "ZMB",
        "diallingCode": "+260",
        "isUEOrAELE": false
    },
    {
        "ISO2": "ZW",
        "ISO3": "ZWE",
        "diallingCode": "+263",
        "isUEOrAELE": false
    },
    {
        "ISO2": "IM",
        "ISO3": "IMN",
        "isUEOrAELE": false
    }
]
